{
    "links": {
        "self": "http://www.neowsapp.com/rest/v1/neo/3455138?api_key=iIulBulltgU6a56xZRHN4H3l9WmuAYTsLGpBGhQ2"
    },
    "id": "3455138",
    "neo_reference_id": "3455138",
    "name": "(2009 FV23)",
    "designation": "2009 FV23",
    "nasa_jpl_url": "http://ssd.jpl.nasa.gov/sbdb.cgi?sstr=3455138",
    "absolute_magnitude_h": 25.9,
    "estimated_diameter": {
        "kilometers": {
            "estimated_diameter_min": 0.0175612318,
            "estimated_diameter_max": 0.0392681082
        },
        "meters": {
            "estimated_diameter_min": 17.561231848,
            "estimated_diameter_max": 39.2681081809
        },
        "miles": {
            "estimated_diameter_min": 0.0109120402,
            "estimated_diameter_max": 0.0244000636
        },
        "feet": {
            "estimated_diameter_min": 57.6155918963,
            "estimated_diameter_max": 128.8323800441
        }
    },
    "is_potentially_hazardous_asteroid": false,
    "close_approach_data": [
        {
            "close_approach_date": "2009-03-28",
            "close_approach_date_full": "2009-Mar-28 09:31",
            "epoch_date_close_approach": 1238232660000,
            "relative_velocity": {
                "kilometers_per_second": "6.9517966364",
                "kilometers_per_hour": "25026.4678909516",
                "miles_per_hour": "15550.4738959082"
            },
            "miss_distance": {
                "astronomical": "0.0211430998",
                "lunar": "8.2246658222",
                "kilometers": "3162962.695277426",
                "miles": "1965373.8832474388"
            },
            "orbiting_body": "Earth"
        }
    ],
    "orbital_data": {
        "orbit_id": "10",
        "orbit_determination_date": "2017-04-06 09:00:54",
        "first_observation_date": "2009-03-24",
        "last_observation_date": "2009-03-30",
        "data_arc_in_days": 6,
        "observations_used": 28,
        "orbit_uncertainty": "8",
        "minimum_orbit_intersection": ".0194524",
        "jupiter_tisserand_invariant": "3.995",
        "epoch_osculation": "2454915.5",
        "eccentricity": ".4229118711591274",
        "semi_major_axis": "1.764342805763487",
        "inclination": "7.712895173103791",
        "ascending_node_longitude": "9.524060033023023",
        "orbital_period": "855.9982627109366",
        "perihelion_distance": "1.018181288411906",
        "perihelion_argument": "178.6752718900857",
        "aphelion_distance": "2.510504323115068",
        "perihelion_time": "2454919.030048305042",
        "mean_anomaly": "358.5153972324775",
        "mean_motion": ".4205616012115307",
        "equinox": "J2000",
        "orbit_class": {
            "orbit_class_type": "AMO",
            "orbit_class_description": "Near-Earth asteroid orbits similar to that of 1221 Amor",
            "orbit_class_range": "1.017 AU < q (perihelion) < 1.3 AU"
        }
    },
    "is_sentry_object": false
}